ONEWEB-0589             
1 54655U 22166P   25092.41643895 -.00000032  00000+0 -10855-3 0  9998
2 54655  87.9308 331.8800 0002378 100.1832 259.9570 13.21826029113310
ONEWEB-0590             
1 54656U 22166Q   25092.59098396  .00000007  00000+0 -15059-4 0  9991
2 54656  87.9295 331.8360 0001370  93.5280 266.6010 13.21727322113321
ONEWEB-0591             
1 54657U 22166R   25092.60410275  .00000058  00000+0  11006-3 0  9990
2 54657  87.9308 331.8437 0001811  86.2744 273.8597 13.21824254113351
ONEWEB-0592             
1 54658U 22166S   25092.60725679  .00000012  00000+0 -33456-5 0  9994
2 54658  87.9305 331.7980 0001786  86.6360 273.4979 13.21825429113232
ONEWEB-0593             
1 54659U 22166T   25092.40382047 -.00000016  00000+0 -70368-4 0  9998
2 54659  87.9309 331.8744 0001855  86.9023 273.2324 13.21824292113310
ONEWEB-0594             
1 54660U 22166U   25092.57413451 -.00000067  00000+0 -19459-3 0  9991
2 54660  87.9312 331.8504 0001777  79.9104 280.2230 13.21828167113358
ONEWEB-0595             
1 54661U 22166V   25092.40066806 -.00000031  00000+0 -10751-3 0  9999
2 54661  87.9309 331.8652 0001556  77.4662 282.6646 13.21824877113302
ONEWEB-0596             
1 54662U 22166W   25092.60096896  .00000058  00000+0  10837-3 0  9996
2 54662  87.9311 331.8362 0001658  82.8936 277.2386 13.21827630113335
ONEWEB-0597             
1 54663U 22166X   25092.58201401 -.00000162  00000+0 -42493-3 0  9995
2 54663  87.9311 331.8433 0001943  87.2710 272.8647 13.21823455113333
ONEWEB-0600             
1 54664U 22166Y   25092.56467469 -.00000050  00000+0 -15290-3 0  9993
2 54664  87.9289 331.8634 0001934  82.1022 278.0332 13.21823666113301
ONEWEB-0601             
1 54665U 22166Z   25092.40539669  .00000009  00000+0 -10350-4 0  9995
2 54665  87.9316 331.8879 0001949  92.3813 267.7544 13.21823957113472
ONEWEB-0602             
1 54666U 22166AA  25092.59779452  .00000075  00000+0  14929-3 0  9999
2 54666  87.9314 331.8508 0002054  84.3650 275.7718 13.21824124113343
ONEWEB-0603             
1 54667U 22166AB  25092.60252561  .00000044  00000+0  75337-4 0  9996
2 54667  87.9287 331.8137 0001997  87.8617 272.2746 13.21823954113272
ONEWEB-0604             
1 54668U 22166AC  25092.36281439  .00000064  00000+0  12354-3 0  9997
2 54668  87.9306 331.8626 0002014  83.3768 276.7596 13.21823587113204
ONEWEB-0605             
1 54669U 22166AD  25092.58359855 -.00000008  00000+0 -52068-4 0  9997
2 54669  87.9307 331.8499 0001925 104.1968 255.9379 13.21823157113771
ONEWEB-0606             
1 54670U 22166AE  25092.60568058  .00000006  00000+0 -17004-4 0  9997
2 54670  87.9310 331.8520 0001659  76.7973 283.3346 13.21823502113364
ONEWEB-0607             
1 54671U 22166AF  25092.57255870  .00000077  00000+0  15607-3 0  9992
2 54671  87.9311 331.8264 0001883  84.7545 275.3803 13.21822908113339
ONEWEB-0608             
1 54672U 22166AG  25092.57886652 -.00000013  00000+0 -62652-4 0  9996
2 54672  87.9292 331.8287 0002018  94.4193 265.7171 13.21823299113808
ONEWEB-0610             
1 54673U 22166AH  25092.40855074  .00000058  00000+0  10879-3 0  9993
2 54673  87.9311 331.8779 0001987  94.6644 265.4717 13.21823992113223
ONEWEB-0611             
1 54674U 22166AJ  25092.40224413  .00000113  00000+0  24118-3 0  9994
2 54674  87.9309 331.8765 0001656  72.0213 288.1101 13.21826673113218
ONEWEB-0612             
1 54675U 22166AK  25092.41485760  .00000027  00000+0  33236-4 0  9996
2 54675  87.9307 331.8527 0001900  87.6209 272.5143 13.21824522113205
ONEWEB-0615             
1 54676U 22166AL  25092.62302582 -.00000009  00000+0 -52261-4 0  9991
2 54676  87.9309 331.8374 0002028  83.6041 276.5324 13.21824022113244
ONEWEB-0655             
1 54677U 22166AM  25092.59622415 -.00000012  00000+0 -60088-4 0  9998
2 54677  87.9307 331.8465 0002064  80.1123 280.0244 13.21822973113230
ONEWEB-0659             
1 54678U 22166AN  25092.61356036 -.00001219  00000+0 -29837-2 0  9990
2 54678  87.9305 331.8453 0001424  85.7266 274.4030 13.21830923113328
ONEWEB-0685             
1 54679U 22166AP  25092.61513203 -.00000034  00000+0 -11307-3 0  9990
2 54679  87.9307 331.8388 0002007  83.3099 276.8263 13.21828029113210
ONEWEB-0712             
1 54680U 22166AQ  25092.58164019 -.00000063  00000+0 -19902-3 0  9996
2 54680  87.9056 316.5992 0002226  74.4214 285.7163 13.16594351114083
ONEWEB-0714             
1 54681U 22166AR  25092.62145428  .00000012  00000+0 -32999-5 0  9991
2 54681  87.9312 331.8285 0001979  83.6813 276.4547 13.21825580113332
ONEWEB-0532             
1 55140U 23004A   25092.52761786  .00000112  00000+0  25605-3 0  9998
2 55140  87.9002  93.6260 0001855 103.7124 256.4214 13.17646677109558
ONEWEB-0533             
1 55141U 23004B   25092.50168690  .00000084  00000+0  19850-3 0  9995
2 55141  87.8824  78.3450 0002050  86.9600 273.1763 13.12442201110256
ONEWEB-0541             
1 55142U 23004C   25092.56846376  .00000556  00000+0  15340-2 0  9999
2 55142  87.8795 108.8859 0001938  92.2513 267.8836 13.11417380108193
ONEWEB-0543             
1 55143U 23004D   25092.47355039 -.00000189  00000+0 -51327-3 0  9991
2 55143  87.9087  63.1388 0002210  77.7866 282.3513 13.18686086111615
ONEWEB-0544             
1 55144U 23004E   25092.46722799 -.00000161  00000+0 -44028-3 0  9992
2 55144  87.9088  63.1285 0001833  79.8503 280.2836 13.18686322111612
ONEWEB-0560             
1 55145U 23004F   25092.38504444 -.00001081  00000+0 -27767-2 0  9991
2 55145  87.9093  63.1132 0001868  74.1024 286.0313 13.18673568111616
ONEWEB-0565             
1 55146U 23004G   25092.37870536  .00000082  00000+0  17476-3 0  9994
2 55146  87.9088  63.1785 0001343  81.8085 278.3199 13.18684374111607
ONEWEB-0567             
1 55147U 23004H   25092.44825639  .00000049  00000+0  91176-4 0  9990
2 55147  87.9089  63.1201 0001578  73.5652 286.5653 13.18684531111612
ONEWEB-0569             
1 55148U 23004J   25092.39692704  .00000383  00000+0  10143-2 0  9994
2 55148  87.8956  47.8010 0001642  47.5871 312.5397 13.13470419112314
ONEWEB-0570             
1 55149U 23004K   25092.43561135  .00000107  00000+0  23827-3 0  9991
2 55149  87.9092  63.1253 0001562 102.9233 257.2074 13.18684287111609
ONEWEB-0571             
1 55150U 23004L   25092.35341719  .00000049  00000+0  91185-4 0  9996
2 55150  87.9089  63.1505 0000908  62.5285 297.5939 13.18687363111603
ONEWEB-0572             
1 55151U 23004M   25092.55800003  .00000015  00000+0  46166-5 0  9998
2 55151  87.9003  93.6270 0001696  92.8741 267.2584 13.17651461109454
ONEWEB-0573             
1 55152U 23004N   25092.34709940  .00000093  00000+0  20409-3 0  9990
2 55152  87.9087  63.1587 0000985  86.3630 273.7614 13.18686922111590
ONEWEB-0588             
1 55153U 23004P   25092.41664862  .00000105  00000+0  23409-3 0  9999
2 55153  87.9091  63.1261 0001567  96.1151 264.0159 13.18687536111600
ONEWEB-0598             
1 55154U 23004Q   25092.54641225 -.00000145  00000+0 -44420-3 0  9994
2 55154  87.8796 108.9279 0001387  77.6202 282.5081 13.11419157108149
ONEWEB-0599             
1 55155U 23004R   25092.51917098  .00000069  00000+0  14512-3 0  9998
2 55155  87.9008  93.6353 0001861  82.3545 277.7797 13.17651176109450
ONEWEB-0614             
1 55156U 23004S   25092.54132591 -.00000337  00000+0 -98808-3 0  9999
2 55156  87.8798 108.9369 0002065 102.4355 257.7004 13.11418774108089
ONEWEB-0616             
1 55157U 23004T   25092.56136827  .00000016  00000+0  91466-5 0  9995
2 55157  87.9003  93.6218 0002741  69.5014 290.6411 13.17651817109676
ONEWEB-0617             
1 55158U 23004U   25092.60575224 -.00000507  00000+0 -14660-2 0  9994
2 55158  87.8791 108.9076 0001781 103.5407 256.5920 13.11416337108114
ONEWEB-0618             
1 55159U 23004V   25092.24562463  .00000797  00000+0  26175-3 0  9990
2 55159  86.9129 350.4847 0015573  69.2097 291.0768 14.37100803116623
ONEWEB-0619             
1 55160U 23004W   25092.51751139  .00000014  00000+0  24781-5 0  9997
2 55160  87.9004  93.6081 0002449  95.8820 264.2591 13.17649977109569
ONEWEB-0620             
1 55161U 23004X   25092.60066164 -.00000317  00000+0 -93018-3 0  9990
2 55161  87.8793 108.9264 0001513 101.7093 258.4204 13.11416752108086
ONEWEB-0621             
1 55162U 23004Y   25092.47520791  .00000129  00000+0  32951-3 0  9995
2 55162  87.8793 108.9114 0002134  96.1103 264.0268 13.11418450108046
ONEWEB-0622             
1 55163U 23004Z   25092.55658984  .00000291  00000+0  78541-3 0  9996
2 55163  87.8793 108.9166 0001862 117.3322 242.7996 13.11418939108043
ONEWEB-0623             
1 55164U 23004AA  25092.51243484  .00000046  00000+0  84514-4 0  9994
2 55164  87.9003  93.6642 0002213 110.9517 249.1851 13.17651466109552
ONEWEB-0624             
1 55165U 23004AB  25092.54397893  .00000054  00000+0  11364-3 0  9993
2 55165  87.8823  78.3456 0001967  91.7933 268.3421 13.12443592110257
ONEWEB-0625             
1 55166U 23004AC  25092.50230966  .00000019  00000+0  16994-4 0  9993
2 55166  87.9002  93.6642 0002047  85.4434 274.6932 13.17650500109542
ONEWEB-0626             
1 55167U 23004AD  25092.49217902  .00000055  00000+0  10739-3 0  9997
2 55167  87.9004  93.6646 0001438  76.5563 283.5729 13.17651575109542
ONEWEB-0627             
1 55168U 23004AE  25092.55631214  .00000057  00000+0  11305-3 0  9993
2 55168  87.9003  93.6543 0001948 107.2118 252.9227 13.17651619109555
ONEWEB-0628             
1 55169U 23004AF  25092.44827269 -.00004239  00000+0 -11822-1 0  9999
2 55169  87.8822  78.3431 0002652 103.5957 256.5467 13.12461017110221
ONEWEB-0629             
1 55170U 23004AG  25092.53183791  .00000047  00000+0  88281-4 0  9993
2 55170  87.9026  93.6317 0002324  92.4892 267.6505 13.17646927109553
ONEWEB-0631             
1 55171U 23004AH  25092.41031507  .00000105  00000+0  23341-3 0  9998
2 55171  87.9097  63.0483 0001354  90.3488 269.7800 13.18684339111584
